[{"OBJECT_NAME":"STARLINK-5521","OBJECT_ID":"2023-064Z","EPOCH":"2026-03-09T12:49:55.294464","MEAN_MOTION":14.98327281,"ECCENTRICITY":0.00028776,"INCLINATION":69.9998,"RA_OF_ASC_NODE":124.9485,"ARG_OF_PERICENTER":266.8459,"MEAN_ANOMALY":93.2371,"EPHEMERIS_TYPE":0,"CLASSIFICATION_TYPE":"U","NORAD_CAT_ID":56471,"ELEMENT_SET_NO":999,"REV_AT_EPOCH":15571,"BSTAR":-5.1809779e-5,"MEAN_MOTION_DOT":-7.11e-6,"MEAN_MOTION_DDOT":0},{"OBJECT_NAME":"ROBUSTA-3A (MEDITERRANEE)","OBJECT_ID":"2024-128J","EPOCH":"2026-03-09T17:32:19.735008","MEAN_MOTION":15.10076246,"ECCENTRICITY":0.0051919,"INCLINATION":61.9866,"RA_OF_ASC_NODE":199.5396,"ARG_OF_PERICENTER":108.1058,"MEAN_ANOMALY":252.5701,"EPHEMERIS_TYPE":0,"CLASSIFICATION_TYPE":"U","NORAD_CAT_ID":60243,"ELEMENT_SET_NO":999,"REV_AT_EPOCH":9139,"BSTAR":0.00068950735,"MEAN_MOTION_DOT":0.00011442,"MEAN_MOTION_DDOT":0}]
