STARLINK-5521           
1 56471U 23064Z   26068.53466776 -.00000711  00000+0 -51810-4 0  9993
2 56471  69.9998 124.9485 0002877 266.8459  93.2371 14.98327281155711
ROBUSTA-3A (MEDITERRAN*)
1 60243U 24128J   26068.73078396  .00011442  00000+0  68951-3 0  9990
2 60243  61.9866 199.5396 0051919 108.1058 252.5701 15.10076246 91399
